[{"OBJECT_NAME":"STARLINK-5072","OBJECT_ID":"2023-028T","EPOCH":"2026-03-09T21:28:37.229376","MEAN_MOTION":14.98331552,"ECCENTRICITY":0.00029159,"INCLINATION":69.9993,"RA_OF_ASC_NODE":243.8254,"ARG_OF_PERICENTER":269.9235,"MEAN_ANOMALY":90.159,"EPHEMERIS_TYPE":0,"CLASSIFICATION_TYPE":"U","NORAD_CAT_ID":55758,"ELEMENT_SET_NO":999,"REV_AT_EPOCH":16607,"BSTAR":6.332235e-6,"MEAN_MOTION_DOT":-1.7e-7,"MEAN_MOTION_DDOT":0},{"OBJECT_NAME":"SITRO-AIS 18","OBJECT_ID":"2024-199BH","EPOCH":"2026-03-09T22:56:51.354816","MEAN_MOTION":14.97350577,"ECCENTRICITY":0.00069154,"INCLINATION":97.331,"RA_OF_ASC_NODE":274.6581,"ARG_OF_PERICENTER":53.7115,"MEAN_ANOMALY":306.4746,"EPHEMERIS_TYPE":0,"CLASSIFICATION_TYPE":"U","NORAD_CAT_ID":61790,"ELEMENT_SET_NO":999,"REV_AT_EPOCH":11718,"BSTAR":0.00032194999,"MEAN_MOTION_DOT":3.687e-5,"MEAN_MOTION_DDOT":0}]
